NORAD_CAT_ID,OBJECT_NAME,OBJECT_TYPE,EPOCH,MEAN_MOTION,ECCENTRICITY,INCLINATION,RA_OF_ASC_NODE,ARG_OF_PERICENTER,MEAN_ANOMALY,BSTAR,MEAN_MOTION_DOT,MEAN_MOTION_DDOT,TLE_LINE0,TLE_LINE1,TLE_LINE2,SEMIMAJOR_AXIS,PERIOD,APOGEE,PERIGEE,DECAYED
49430.0,STARLINK-3138,PAYLOAD,2022-08-16 15:30:59,15.08838206,0.0001519,53.2173,309.7451,75.717,284.399,-2.0516e-05,-6.14e-06,0.0,0 STARLINK-3138,1 49430U 21104Y   22228.64651753 -.00000614  00000-0 -20516-4 0  9992,2 49430  53.2173 309.7451 0001519  75.7170 284.3990 15.08838206 42221,6917.886,95.438,540.802,538.7,0.0
49430.0,STARLINK-3138,PAYLOAD,2022-08-17 05:49:26,15.08846319,0.0001296,53.2179,307.0681,81.3649,278.749,7.662600000000001e-05,9.32e-06,0.0,0 STARLINK-3138,1 49430U 21104Y   22229.24266784  .00000932  00000-0  76626-4 0  9999,2 49430  53.2179 307.0681 0001296  81.3649 278.7490 15.08846319 43383,6917.861,95.437,540.623,538.83,0.0
49430.0,STARLINK-3138,PAYLOAD,2022-08-17 12:11:00,15.08830264,0.0001341999999999,53.2175,305.8794,72.96,287.1539,-7.8998e-05,-1.545e-05,0.0,0 STARLINK-3138,1 49430U 21104Y   22229.50764142 -.00001545  00000-0 -78998-4 0  9996,2 49430  53.2175 305.8794 0001342  72.9600 287.1539 15.08830264 42351,6917.91,95.438,540.7040000000002,538.847,0.0
49430.0,STARLINK-3138,PAYLOAD,2022-08-18 07:15:37,15.08834085,0.0001258,53.217,302.3111,70.8936,289.2193,7.641600000000001e-05,9.28e-06,0.0,0 STARLINK-3138,1 49430U 21104Y   22230.30251925  .00000928  00000-0  76416-4 0  9991,2 49430  53.2170 302.3111 0001258  70.8936 289.2193 15.08834085 43542,6917.898,95.438,540.634,538.893,0.0
49430.0,STARLINK-3138,PAYLOAD,2022-08-18 10:26:23,15.08838557,0.0001303,53.2172,301.7165,71.3852,288.7281,0.0001226,1.664e-05,0.0,0 STARLINK-3138,1 49430U 21104Y   22230.43499729  .00001664  00000-0  12260-3 0  9995,2 49430  53.2172 301.7165 0001303  71.3852 288.7281 15.08838557 42493,6917.885,95.438,540.651,538.8480000000002,0.0
49430.0,STARLINK-3138,PAYLOAD,2022-08-18 13:37:09,15.08840607,0.0001349,53.2161,301.1218,70.5683,289.5455,0.00013484,1.859e-05,0.0,0 STARLINK-3138,1 49430U 21104Y   22230.56747527  .00001859  00000-0  13484-3 0  9996,2 49430  53.2161 301.1218 0001349  70.5683 289.5455 15.08840607 43589,6917.879,95.438,540.677,538.81,0.0
49430.0,STARLINK-3138,PAYLOAD,2022-08-19 11:52:33,15.08850674,0.0001533,53.2161,296.9596,69.7066,290.4091,0.00027866,4.151e-05,0.0,0 STARLINK-3138,1 49430U 21104Y   22231.49482924  .00004151  00000-0  27866-3 0  9993,2 49430  53.2161 296.9596 0001533  69.7066 290.4091 15.08850674 42658,6917.848000000001,95.437,540.773,538.6519999999998,0.0
49430.0,STARLINK-3138,PAYLOAD,2022-08-20 13:18:43,15.08836001,0.0001330999999999,53.2151,292.2,68.8186,291.2948,-5.5566e-05,-1.172e-05,0.0,0 STARLINK-3138,1 49430U 21104Y   22232.55467459 -.00001172  00000-0 -55566-4 0  9998,2 49430  53.2151 292.2000 0001331  68.8186 291.2948 15.08836001 42811,6917.893,95.438,540.678,538.837,0.0
49430.0,STARLINK-3138,PAYLOAD,2022-08-21 13:09:31,15.08840037,0.000139,53.2151,287.7402,71.7022,288.4121,9.394e-05,1.207e-05,0.0,0 STARLINK-3138,1 49430U 21104Y   22233.54827749  .00001207  00000-0  93940-4 0  9995,2 49430  53.2151 287.7402 0001390  71.7022 288.4121 15.08840037 42964,6917.88,95.438,540.707,538.784,0.0
49430.0,STARLINK-3138,PAYLOAD,2022-08-21 21:06:26,15.08842261,0.0001463,53.2157,286.2534,66.0997,294.0148,0.00025361,3.751e-05,0.0,0 STARLINK-3138,1 49430U 21104Y   22233.87947813  .00003751  00000-0  25361-3 0  9993,2 49430  53.2157 286.2534 0001463  66.0997 294.0148 15.08842261 43019,6917.873000000001,95.437,540.751,538.726,0.0
49430.0,STARLINK-3138,PAYLOAD,2022-08-22 09:49:31,15.08845836,0.0001372,53.2155,283.8742,67.2904,292.8233,0.00028418,4.238e-05,0.0,0 STARLINK-3138,1 49430U 21104Y   22234.40939604  .00004238  00000-0  28418-3 0  9999,2 49430  53.2155 283.8742 0001372  67.2904 292.8233 15.08845836 43091,6917.863,95.437,540.677,538.778,0.0
49430.0,STARLINK-3138,PAYLOAD,2022-08-22 20:57:13,15.08842683,0.0001439,53.2156,281.7928,65.8007,294.3135,0.00013635,1.883e-05,0.0,0 STARLINK-3138,1 49430U 21104Y   22234.87307649  .00001883  00000-0  13635-3 0  9996,2 49430  53.2156 281.7928 0001439  65.8007 294.3135 15.08842683 43160,6917.871999999999,95.437,540.7330000000002,538.742,0.0
49430.0,STARLINK-3138,PAYLOAD,2022-08-23 03:18:46,15.08837013,0.0001464,53.2159,280.6035,68.7957,291.3191,0.00010371,1.363e-05,0.0,0 STARLINK-3138,1 49430U 21104Y   22235.13803952  .00001363  00000-0  10371-3 0  9991,2 49430  53.2159 280.6035 0001464  68.7957 291.3191 15.08837013 44277,6917.89,95.438,540.7669999999998,538.742,0.0
49430.0,STARLINK-3138,PAYLOAD,2022-08-23 12:51:05,15.08835054,0.0001375999999999,53.2166,278.8194,66.4716,293.6421,2.5839e-06,-2.47e-06,0.0,0 STARLINK-3138,1 49430U 21104Y   22235.53548188 -.00000247  00000-0  25839-5 0  9990,2 49430  53.2166 278.8194 0001376  66.4716 293.6421 15.08835054 43262,6917.896,95.438,540.712,538.809,0.0
49430.0,STARLINK-3138,PAYLOAD,2022-08-23 14:26:28,15.0883552,0.0001336,53.2164,278.5221,64.2613,295.8517,8.540100000000002e-07,-2.74e-06,0.0,0 STARLINK-3138,1 49430U 21104Y   22235.60172129 -.00000274  00000-0  85401-6 0  9998,2 49430  53.2164 278.5221 0001336  64.2613 295.8517 15.08835520 43275,6917.894,95.438,540.683,538.835,0.0
49430.0,STARLINK-3138,PAYLOAD,2022-08-24 04:44:56,15.08839205,0.0001347,53.2163,275.8457,64.1713,295.9418,1.4267e-05,-6.1e-07,0.0,0 STARLINK-3138,1 49430U 21104Y   22236.19787887 -.00000061  00000-0  14267-4 0  9990,2 49430  53.2163 275.8457 0001347  64.1713 295.9418 15.08839205 44431,6917.8830000000025,95.438,540.68,538.816,0.0
49430.0,STARLINK-3138,PAYLOAD,2022-08-24 12:41:52,15.08840504,0.0001353,53.2163,274.3589,63.4793,296.6338,-1.7106e-05,-5.6e-06,0.0,0 STARLINK-3138,1 49430U 21104Y   22236.52907828 -.00000560  00000-0 -17106-4 0  9996,2 49430  53.2163 274.3589 0001353  63.4793 296.6338 15.08840504 43418,6917.879,95.438,540.68,538.808,0.0
49430.0,STARLINK-3138,PAYLOAD,2022-08-25 10:57:16,15.08838152,0.0001341999999999,53.2161,270.1955,60.9779,299.1348,8.7185e-05,1.1e-05,0.0,0 STARLINK-3138,1 49430U 21104Y   22237.45643712  .00001100  00000-0  87185-4 0  9991,2 49430  53.2161 270.1955 0001342  60.9779 299.1348 15.08838152 43551,6917.886,95.438,540.679,538.823,0.0
49430.0,STARLINK-3138,PAYLOAD,2022-08-25 18:54:11,15.08839786,0.0001357,53.2161,268.7086,60.6866,299.4262,9.3958e-05,1.208e-05,0.0,0 STARLINK-3138,1 49430U 21104Y   22237.78763620  .00001208  00000-0  93958-4 0  9992,2 49430  53.2161 268.7086 0001357  60.6866 299.4262 15.08839786 43607,6917.880999999999,95.438,540.685,538.807,0.0
49430.0,STARLINK-3138,PAYLOAD,2022-08-26 12:23:26,15.08832691,0.0001559,53.2161,265.4375,60.2473,299.8674,-8.951599999999999e-06,-4.3e-06,0.0,0 STARLINK-3138,1 49430U 21104Y   22238.51628345 -.00000430  00000-0 -89516-5 0  9992,2 49430  53.2161 265.4375 0001559  60.2473 299.8674 15.08832691 43717,6917.903,95.438,540.846,538.689,0.0
49430.0,STARLINK-3138,PAYLOAD,2022-08-26 18:45:00,15.08825281,0.000173,53.2162,264.248,57.3257,302.7901,-7.087e-05,-1.415e-05,0.0,0 STARLINK-3138,1 49430U 21104Y   22238.78125234 -.00001415  00000-0 -70870-4 0  9996,2 49430  53.2162 264.2480 0001730  57.3257 302.7901 15.08825281 44827,6917.925,95.438,540.987,538.594,0.0
49430.0,STARLINK-3138,PAYLOAD,2022-08-27 10:38:51,15.08831629,0.0001331999999999,53.2164,261.2726,67.9073,292.206,-3.3517e-05,-8.21e-06,0.0,0 STARLINK-3138,1 49430U 21104Y   22239.44365356 -.00000821  00000-0 -33517-4 0  9998,2 49430  53.2164 261.2726 0001332  67.9073 292.2060 15.08831629 43854,6917.906,95.438,540.692,538.85,0.0
49430.0,STARLINK-3138,PAYLOAD,2022-08-27 18:35:47,15.08835247,0.0001501999999999,53.216,259.7874,57.2461,302.8676,1.2312e-05,-9.2e-07,0.0,0 STARLINK-3138,1 49430U 21104Y   22239.77485266 -.00000092  00000-0  12312-4 0  9996,2 49430  53.2160 259.7874 0001502  57.2461 302.8676 15.08835247 43905,6917.895,95.438,540.799,538.721,0.0
49430.0,STARLINK-3138,PAYLOAD,2022-08-28 10:29:38,15.08838807,0.0001536,53.216,256.8135,58.5732,301.541,3.9233e-05,3.36e-06,0.0,0 STARLINK-3138,1 49430U 21104Y   22240.43725335  .00000336  00000-0  39233-4 0  9996,2 49430  53.2160 256.8135 0001536  58.5732 301.5410 15.08838807 44004,6917.884,95.438,540.812,538.686,0.0
49430.0,STARLINK-3138,PAYLOAD,2022-08-28 13:40:24,15.08838882,0.000154,53.216,256.2188,58.0831,302.0311,4.0704e-05,3.6000000000000007e-06,0.0,0 STARLINK-3138,1 49430U 21104Y   22240.56973371  .00000360  00000-0  40704-4 0  9997,2 49430  53.2160 256.2188 0001540  58.0831 302.0311 15.08838882 44027,6917.884,95.438,540.814,538.683,0.0
49430.0,STARLINK-3138,PAYLOAD,2022-08-29 05:34:16,15.08827528,0.000165,53.216,253.245,56.162,303.9529,0.00031066,4.658e-05,0.0,0 STARLINK-3138,1 49430U 21104Y   22241.23214069  .00004658  00000-0  31066-3 0  9998,2 49430  53.2160 253.2450 0001650  56.1620 303.9529 15.08827528 45198,6917.919,95.438,540.925,538.6419999999998,0.0
49430.0,STARLINK-3138,PAYLOAD,2022-08-29 10:20:26,15.08833121,0.0001681,53.2164,252.3524,60.3517,299.7642,0.00026612,3.949e-05,0.0,0 STARLINK-3138,1 49430U 21104Y   22241.43086077  .00003949  00000-0  26612-3 0  9999,2 49430  53.2164 252.3524 0001681  60.3517 299.7642 15.08833121 44159,6917.901,95.438,540.929,538.604,0.0
49430.0,STARLINK-3138,PAYLOAD,2022-08-30 03:49:40,15.08845915,0.0001706999999999,53.2159,249.0819,58.9977,301.1182,0.00015051,2.108e-05,0.0,0 STARLINK-3138,1 49430U 21104Y   22242.15949453  .00002108  00000-0  15051-3 0  9996,2 49430  53.2159 249.0819 0001707  58.9977 301.1182 15.08845915 45337,6917.861999999999,95.437,540.908,538.5459999999998,0.0
49430.0,STARLINK-3138,PAYLOAD,2022-08-30 11:46:36,15.08849861,0.0001784,53.215,247.5951,57.5177,302.5988,0.00022869,3.354e-05,0.0,0 STARLINK-3138,1 49430U 21104Y   22242.49069459  .00003354  00000-0  22869-3 0  9991,2 49430  53.2150 247.5951 0001784  57.5177 302.5988 15.08849861 44310,6917.85,95.437,540.9490000000002,538.481,0.0
